[{"OBJECT_NAME":"STARLINK-30221","OBJECT_ID":"2023-102Q","EPOCH":"2026-03-09T22:00:01.999584","MEAN_MOTION":15.06449131,"ECCENTRICITY":5.601e-5,"INCLINATION":43.0009,"RA_OF_ASC_NODE":247.216,"ARG_OF_PERICENTER":292.626,"MEAN_ANOMALY":132.8508,"EPHEMERIS_TYPE":0,"CLASSIFICATION_TYPE":"U","NORAD_CAT_ID":57418,"ELEMENT_SET_NO":999,"REV_AT_EPOCH":573,"BSTAR":0.0060867967,"MEAN_MOTION_DOT":0.00092303,"MEAN_MOTION_DDOT":0},{"OBJECT_NAME":"OBJECT BE","OBJECT_ID":"2018-099BE","EPOCH":"2026-03-09T15:10:24.322944","MEAN_MOTION":15.09972337,"ECCENTRICITY":0.0006427,"INCLINATION":97.4031,"RA_OF_ASC_NODE":111.7891,"ARG_OF_PERICENTER":340.4925,"MEAN_ANOMALY":19.6058,"EPHEMERIS_TYPE":0,"CLASSIFICATION_TYPE":"U","NORAD_CAT_ID":43810,"ELEMENT_SET_NO":999,"REV_AT_EPOCH":39698,"BSTAR":0.00027209,"MEAN_MOTION_DOT":4.358e-5,"MEAN_MOTION_DDOT":0}]
